{
  "norad_id": 59430,
  "name": "STARLINK-31772",
  "history": [
    {
      "epoch": "2026-03-28T16:54:07.661376",
      "apogee_km": 476.20193251388446,
      "perigee_km": 474.26475885197306,
      "latitude_deg": 19.5884775926388,
      "longitude_deg": -169.3914873600006,
      "semi_major_axis_km": 6853.370345682929,
      "eccentricity": 0.00014133,
      "inclination_deg": 53.1607,
      "raan_deg": 193.1343,
      "arg_perigee_deg": 48.6278,
      "mean_anomaly_deg": 311.4844,
      "mean_motion_rev_day": 15.30193879
    }
  ]
}